[{"OBJECT_NAME":"SMDC ONE 2.4","OBJECT_ID":"2013-072H","EPOCH":"2026-03-09T13:26:07.283328","MEAN_MOTION":15.15767863,"ECCENTRICITY":0.0137633,"INCLINATION":120.4883,"RA_OF_ASC_NODE":328.0945,"ARG_OF_PERICENTER":267.6479,"MEAN_ANOMALY":90.8828,"EPHEMERIS_TYPE":0,"CLASSIFICATION_TYPE":"U","NORAD_CAT_ID":39469,"ELEMENT_SET_NO":999,"REV_AT_EPOCH":10271,"BSTAR":0.00065974,"MEAN_MOTION_DOT":0.00015821,"MEAN_MOTION_DDOT":0},{"OBJECT_NAME":"STARLINK-36033","OBJECT_ID":"2025-283R","EPOCH":"2026-03-09T06:20:06.712512","MEAN_MOTION":15.30186705,"ECCENTRICITY":0.00011065,"INCLINATION":53.1627,"RA_OF_ASC_NODE":26.5248,"ARG_OF_PERICENTER":106.8453,"MEAN_ANOMALY":253.267,"EPHEMERIS_TYPE":0,"CLASSIFICATION_TYPE":"U","NORAD_CAT_ID":66893,"ELEMENT_SET_NO":999,"REV_AT_EPOCH":1577,"BSTAR":0.00064067578,"MEAN_MOTION_DOT":0.00018656,"MEAN_MOTION_DDOT":0}]
